[{"OBJECT_NAME":"GAOFEN-1 04","OBJECT_ID":"2018-031D","EPOCH":"2026-03-09T23:14:02.472288","MEAN_MOTION":14.76437127,"ECCENTRICITY":0.00019063,"INCLINATION":98.0641,"RA_OF_ASC_NODE":131.7673,"ARG_OF_PERICENTER":79.011,"MEAN_ANOMALY":281.1314,"EPHEMERIS_TYPE":0,"CLASSIFICATION_TYPE":"U","NORAD_CAT_ID":43262,"ELEMENT_SET_NO":999,"REV_AT_EPOCH":42804,"BSTAR":0.00013515427,"MEAN_MOTION_DOT":8.88e-6,"MEAN_MOTION_DDOT":0},{"OBJECT_NAME":"FENGYUN 1C DEB","OBJECT_ID":"1999-025BZA","EPOCH":"2026-03-09T03:21:01.330272","MEAN_MOTION":14.65229778,"ECCENTRICITY":0.00527826,"INCLINATION":98.8749,"RA_OF_ASC_NODE":33.8799,"ARG_OF_PERICENTER":290.0104,"MEAN_ANOMALY":133.3655,"EPHEMERIS_TYPE":0,"CLASSIFICATION_TYPE":"U","NORAD_CAT_ID":31559,"ELEMENT_SET_NO":999,"REV_AT_EPOCH":98821,"BSTAR":0.0022733779,"MEAN_MOTION_DOT":0.00012459,"MEAN_MOTION_DDOT":0}]
